[
  {
    "OBJECT_NAME": "STARLINK-11453 [DTC]",
    "OBJECT_ID": "24249C",
    "EPOCH": "2025-11-10T23:52:32.776320",
    "MEAN_MOTION": 15.7088813,
    "ECCENTRICITY": 0.0001853,
    "INCLINATION": 42.9991,
    "RA_OF_ASC_NODE": 163.0542,
    "ARG_OF_PERICENTER": 278.7886,
    "MEAN_ANOMALY": 81.2772,
    "EPHEMERIS_TYPE": 0,
    "CLASSIFICATION_TYPE": "U",
    "NORAD_CAT_ID": 62411,
    "ELEMENT_SET_NO": 999,
    "REV_AT_EPOCH": 5081,
    "BSTAR": 0.0012428,
    "MEAN_MOTION_DOT": 0.00162505,
    "MEAN_MOTION_DDOT": 0.0,
    "TLE_LINE1": "1 62411U 24249C   25314.99482380  .00162505  00000+0  12428-2 0  9990",
    "TLE_LINE2": "2 62411  42.9991 163.0542 0001853 278.7886  81.2772 15.70888130 50816",
    "COMMENT": "Grouped by shell and plane from TLE"
  },
  {
    "OBJECT_NAME": "STARLINK-11462 [DTC]",
    "OBJECT_ID": "24249D",
    "EPOCH": "2025-11-11T00:00:11.593152",
    "MEAN_MOTION": 15.70881328,
    "ECCENTRICITY": 0.0001673,
    "INCLINATION": 43.0002,
    "RA_OF_ASC_NODE": 163.0962,
    "ARG_OF_PERICENTER": 259.5054,
    "MEAN_ANOMALY": 100.5626,
    "EPHEMERIS_TYPE": 0,
    "CLASSIFICATION_TYPE": "U",
    "NORAD_CAT_ID": 62412,
    "ELEMENT_SET_NO": 999,
    "REV_AT_EPOCH": 5081,
    "BSTAR": 0.0012296,
    "MEAN_MOTION_DOT": 0.00160685,
    "MEAN_MOTION_DDOT": 0.0,
    "TLE_LINE1": "1 62412U 24249D   25315.00013418  .00160685  00000+0  12296-2 0  9996",
    "TLE_LINE2": "2 62412  43.0002 163.0962 0001673 259.5054 100.5626 15.70881328 50817",
    "COMMENT": "Grouped by shell and plane from TLE"
  },
  {
    "OBJECT_NAME": "STARLINK-11441 [DTC]",
    "OBJECT_ID": "24249E",
    "EPOCH": "2025-11-10T21:58:02.868672",
    "MEAN_MOTION": 15.70946192,
    "ECCENTRICITY": 0.0001846,
    "INCLINATION": 42.9987,
    "RA_OF_ASC_NODE": 163.3077,
    "ARG_OF_PERICENTER": 279.7327,
    "MEAN_ANOMALY": 80.3332,
    "EPHEMERIS_TYPE": 0,
    "CLASSIFICATION_TYPE": "U",
    "NORAD_CAT_ID": 62413,
    "ELEMENT_SET_NO": 999,
    "REV_AT_EPOCH": 5080,
    "BSTAR": 0.0020724000000000003,
    "MEAN_MOTION_DOT": 0.00275702,
    "MEAN_MOTION_DDOT": 0.0,
    "TLE_LINE1": "1 62413U 24249E   25314.91531098  .00275702  00000+0  20724-2 0  9997",
    "TLE_LINE2": "2 62413  42.9987 163.3077 0001846 279.7327  80.3332 15.70946192 50806",
    "COMMENT": "Grouped by shell and plane from TLE"
  },
  {
    "OBJECT_NAME": "STARLINK-11445 [DTC]",
    "OBJECT_ID": "24249F",
    "EPOCH": "2025-11-10T23:44:53.893824",
    "MEAN_MOTION": 15.7088685,
    "ECCENTRICITY": 0.000161,
    "INCLINATION": 42.9996,
    "RA_OF_ASC_NODE": 163.0096,
    "ARG_OF_PERICENTER": 276.2651,
    "MEAN_ANOMALY": 83.8033,
    "EPHEMERIS_TYPE": 0,
    "CLASSIFICATION_TYPE": "U",
    "NORAD_CAT_ID": 62414,
    "ELEMENT_SET_NO": 999,
    "REV_AT_EPOCH": 5081,
    "BSTAR": 0.00191,
    "MEAN_MOTION_DOT": 0.00252723,
    "MEAN_MOTION_DDOT": 0.0,
    "TLE_LINE1": "1 62414U 24249F   25314.98951266  .00252723  00000+0  19100-2 0  9992",
    "TLE_LINE2": "2 62414  42.9996 163.0096 0001610 276.2651  83.8033 15.70886850 50817",
    "COMMENT": "Grouped by shell and plane from TLE"
  },
  {
    "OBJECT_NAME": "STARLINK-11355 [DTC]",
    "OBJECT_ID": "24249G",
    "EPOCH": "2025-11-10T23:30:55.380960",
    "MEAN_MOTION": 15.70927938,
    "ECCENTRICITY": 0.0002047,
    "INCLINATION": 42.9992,
    "RA_OF_ASC_NODE": 162.9229,
    "ARG_OF_PERICENTER": 277.7426,
    "MEAN_ANOMALY": 82.3209,
    "EPHEMERIS_TYPE": 0,
    "CLASSIFICATION_TYPE": "U",
    "NORAD_CAT_ID": 62415,
    "ELEMENT_SET_NO": 999,
    "REV_AT_EPOCH": 5081,
    "BSTAR": 0.0019345000000000002,
    "MEAN_MOTION_DOT": 0.00256531,
    "MEAN_MOTION_DDOT": 0.0,
    "TLE_LINE1": "1 62415U 24249G   25314.97980765  .00256531  00000+0  19345-2 0  9990",
    "TLE_LINE2": "2 62415  42.9992 162.9229 0002047 277.7426  82.3209 15.70927938 50813",
    "COMMENT": "Grouped by shell and plane from TLE"
  },
  {
    "OBJECT_NAME": "STARLINK-11446 [DTC]",
    "OBJECT_ID": "24249H",
    "EPOCH": "2025-11-11T06:52:07.520160",
    "MEAN_MOTION": 15.70919742,
    "ECCENTRICITY": 8.16e-05,
    "INCLINATION": 42.9989,
    "RA_OF_ASC_NODE": 160.9221,
    "ARG_OF_PERICENTER": 273.0365,
    "MEAN_ANOMALY": 87.0409,
    "EPHEMERIS_TYPE": 0,
    "CLASSIFICATION_TYPE": "U",
    "NORAD_CAT_ID": 62416,
    "ELEMENT_SET_NO": 999,
    "REV_AT_EPOCH": 5086,
    "BSTAR": 0.002385,
    "MEAN_MOTION_DOT": 0.00318679,
    "MEAN_MOTION_DDOT": 0.0,
    "TLE_LINE1": "1 62416U 24249H   25315.28619815  .00318679  00000+0  23850-2 0  9999",
    "TLE_LINE2": "2 62416  42.9989 160.9221 0000816 273.0365  87.0409 15.70919742 50866",
    "COMMENT": "Grouped by shell and plane from TLE"
  },
  {
    "OBJECT_NAME": "STARLINK-11428 [DTC]",
    "OBJECT_ID": "24249J",
    "EPOCH": "2025-11-10T15:06:07.761600",
    "MEAN_MOTION": 15.70992235,
    "ECCENTRICITY": 0.0002662,
    "INCLINATION": 43.001,
    "RA_OF_ASC_NODE": 165.4862,
    "ARG_OF_PERICENTER": 255.2011,
    "MEAN_ANOMALY": 104.8562,
    "EPHEMERIS_TYPE": 0,
    "CLASSIFICATION_TYPE": "U",
    "NORAD_CAT_ID": 62417,
    "ELEMENT_SET_NO": 999,
    "REV_AT_EPOCH": 5075,
    "BSTAR": 0.0020325,
    "MEAN_MOTION_DOT": 0.00270755,
    "MEAN_MOTION_DDOT": 0.0,
    "TLE_LINE1": "1 62417U 24249J   25314.62925650  .00270755  00000+0  20325-2 0  9990",
    "TLE_LINE2": "2 62417  43.0010 165.4862 0002662 255.2011 104.8562 15.70992235 50750",
    "COMMENT": "Grouped by shell and plane from TLE"
  },
  {
    "OBJECT_NAME": "STARLINK-11447 [DTC]",
    "OBJECT_ID": "24249K",
    "EPOCH": "2025-11-11T06:59:46.066560",
    "MEAN_MOTION": 15.70928627,
    "ECCENTRICITY": 0.0001068,
    "INCLINATION": 43.0004,
    "RA_OF_ASC_NODE": 160.9624,
    "ARG_OF_PERICENTER": 283.5421,
    "MEAN_ANOMALY": 76.5327,
    "EPHEMERIS_TYPE": 0,
    "CLASSIFICATION_TYPE": "U",
    "NORAD_CAT_ID": 62418,
    "ELEMENT_SET_NO": 999,
    "REV_AT_EPOCH": 5086,
    "BSTAR": 0.002199,
    "MEAN_MOTION_DOT": 0.0029298,
    "MEAN_MOTION_DDOT": 0.0,
    "TLE_LINE1": "1 62418U 24249K   25315.29150540  .00292980  00000+0  21990-2 0  9996",
    "TLE_LINE2": "2 62418  43.0004 160.9624 0001068 283.5421  76.5327 15.70928627 50868",
    "COMMENT": "Grouped by shell and plane from TLE"
  },
  {
    "OBJECT_NAME": "STARLINK-11439 [DTC]",
    "OBJECT_ID": "24249L",
    "EPOCH": "2025-11-10T23:37:15.318912",
    "MEAN_MOTION": 15.70882437,
    "ECCENTRICITY": 0.0002312,
    "INCLINATION": 43.0005,
    "RA_OF_ASC_NODE": 162.9652,
    "ARG_OF_PERICENTER": 280.1045,
    "MEAN_ANOMALY": 79.9562,
    "EPHEMERIS_TYPE": 0,
    "CLASSIFICATION_TYPE": "U",
    "NORAD_CAT_ID": 62419,
    "ELEMENT_SET_NO": 999,
    "REV_AT_EPOCH": 5081,
    "BSTAR": 0.0014408000000000001,
    "MEAN_MOTION_DOT": 0.00189034,
    "MEAN_MOTION_DDOT": 0.0,
    "TLE_LINE1": "1 62419U 24249L   25314.98420508  .00189034  00000+0  14408-2 0  9997",
    "TLE_LINE2": "2 62419  43.0005 162.9652 0002312 280.1045  79.9562 15.70882437 50812",
    "COMMENT": "Grouped by shell and plane from TLE"
  },
  {
    "OBJECT_NAME": "STARLINK-11434 [DTC]",
    "OBJECT_ID": "24249M",
    "EPOCH": "2025-11-11T06:29:21.537024",
    "MEAN_MOTION": 15.71013266,
    "ECCENTRICITY": 0.0003615,
    "INCLINATION": 42.9996,
    "RA_OF_ASC_NODE": 161.686,
    "ARG_OF_PERICENTER": 276.8692,
    "MEAN_ANOMALY": 83.1765,
    "EPHEMERIS_TYPE": 0,
    "CLASSIFICATION_TYPE": "U",
    "NORAD_CAT_ID": 62420,
    "ELEMENT_SET_NO": 999,
    "REV_AT_EPOCH": 5085,
    "BSTAR": 0.0020585,
    "MEAN_MOTION_DOT": 0.00274624,
    "MEAN_MOTION_DDOT": 0.0,
    "TLE_LINE1": "1 62420U 24249M   25315.27038816  .00274624  00000+0  20585-2 0  9992",
    "TLE_LINE2": "2 62420  42.9996 161.6860 0003615 276.8692  83.1765 15.71013266 50858",
    "COMMENT": "Grouped by shell and plane from TLE"
  },
  {
    "OBJECT_NAME": "STARLINK-11461 [DTC]",
    "OBJECT_ID": "24249N",
    "EPOCH": "2025-11-11T00:07:50.111040",
    "MEAN_MOTION": 15.70947787,
    "ECCENTRICITY": 0.000192,
    "INCLINATION": 42.9997,
    "RA_OF_ASC_NODE": 163.1339,
    "ARG_OF_PERICENTER": 277.3951,
    "MEAN_ANOMALY": 82.6699,
    "EPHEMERIS_TYPE": 0,
    "CLASSIFICATION_TYPE": "U",
    "NORAD_CAT_ID": 62421,
    "ELEMENT_SET_NO": 999,
    "REV_AT_EPOCH": 5081,
    "BSTAR": 0.0021952,
    "MEAN_MOTION_DOT": 0.00292694,
    "MEAN_MOTION_DDOT": 0.0,
    "TLE_LINE1": "1 62421U 24249N   25315.00544110  .00292694  00000+0  21952-2 0  9999",
    "TLE_LINE2": "2 62421  42.9997 163.1339 0001920 277.3951  82.6699 15.70947787 50818",
    "COMMENT": "Grouped by shell and plane from TLE"
  }
]